FLOCK 2K-21             
1 42860U 17042AM  17345.80175078  .00007837  00000-0  23264-3 0  9995
2 42860  96.9941 246.8646 0012833  72.0337 288.2305 15.34967082 22877
